{
"type": "FeatureCollection",
"name": "detected_parcels_8bbc0f62",
"crs": { "type": "name", "properties": { "name": "urn:ogc:def:crs:OGC:1.3:CRS84" } },
"features": [
{ "type": "Feature", "properties": { "area_hectare": 0.055, "confidence": 0.45208066701889038, "crop_type": "padi" }, "geometry": { "type": "Polygon", "coordinates": [ [ [ 112.011633103736784, -7.83640212789252 ], [ 112.011633103736784, -7.836658505333376 ], [ 112.011641271724216, -7.836658505333376 ], [ 112.011642905321708, -7.836668272093028 ], [ 112.011785845101912, -7.836668272093028 ], [ 112.011823417844127, -7.836458286760517 ], [ 112.011834853026542, -7.836450961690778 ], [ 112.011834853026542, -7.836438753241214 ], [ 112.011778493913212, -7.836424916998373 ], [ 112.011756440347128, -7.836413522445446 ], [ 112.011753173152144, -7.83640212789252 ], [ 112.011633103736784, -7.83640212789252 ] ] ] } },
{ "type": "Feature", "properties": { "area_hectare": 0.5179, "confidence": 0.36208459734916687, "crop_type": "padi" }, "geometry": { "type": "Polygon", "coordinates": [ [ [ 112.011314552226622, -7.836337016161509 ], [ 112.011227971559762, -7.83677082306937 ], [ 112.011227971559762, -7.837031269993414 ], [ 112.011268811496961, -7.83703615337324 ], [ 112.011291681861792, -7.837071964825295 ], [ 112.011305567440445, -7.837158237868885 ], [ 112.011404400088466, -7.837194863217579 ], [ 112.011675577271475, -7.837224977393172 ], [ 112.011799730680551, -7.83663978571071 ], [ 112.011799730680551, -7.836429800378199 ], [ 112.011727035592344, -7.83639154723623 ], [ 112.011714783611183, -7.836337016161509 ], [ 112.011314552226622, -7.836337016161509 ] ] ] } }
]
}
